CCSDS_OMM_VERS = 2.0
CREATION_DATE  = 
ORIGINATOR     = 

OBJECT_NAME    = AQUA
OBJECT_ID      = 2002-022A
CENTER_NAME    = EARTH
REF_FRAME      = TEME
TIME_SYSTEM    = UTC
MEAN_ELEMENT_THEORY = SGP/SGP4

EPOCH          = 2026-03-28T21:48:32.644224
MEAN_MOTION    = 14.62020005
ECCENTRICITY   = .00011373
INCLINATION    = 98.4206
RA_OF_ASC_NODE = 55.6284
ARG_OF_PERICENTER = 117.8140
MEAN_ANOMALY   = 264.0345

EPHEMERIS_TYPE = 0
CLASSIFICATION_TYPE = U
NORAD_CAT_ID   = 27424
ELEMENT_SET_NO = 999
REV_AT_EPOCH   = 27154
BSTAR          = .22442259E-3
MEAN_MOTION_DOT = .1076E-4
MEAN_MOTION_DDOT = 0

CCSDS_OMM_VERS = 2.0
CREATION_DATE  = 
ORIGINATOR     = 

OBJECT_NAME    = CZ-4B R/B
OBJECT_ID      = 2002-024C
CENTER_NAME    = EARTH
REF_FRAME      = TEME
TIME_SYSTEM    = UTC
MEAN_ELEMENT_THEORY = SGP/SGP4

EPOCH          = 2026-03-28T21:49:48.943200
MEAN_MOTION    = 14.14551024
ECCENTRICITY   = .00495112
INCLINATION    = 98.8798
RA_OF_ASC_NODE = 141.2160
ARG_OF_PERICENTER = 329.4653
MEAN_ANOMALY   = 202.9850

EPHEMERIS_TYPE = 0
CLASSIFICATION_TYPE = U
NORAD_CAT_ID   = 27432
ELEMENT_SET_NO = 999
REV_AT_EPOCH   = 23195
BSTAR          = .44269938E-4
MEAN_MOTION_DOT = .41E-6
MEAN_MOTION_DDOT = 0

CCSDS_OMM_VERS = 2.0
CREATION_DATE  = 
ORIGINATOR     = 

OBJECT_NAME    = MIDORI II (ADEOS-II)
OBJECT_ID      = 2002-056A
CENTER_NAME    = EARTH
REF_FRAME      = TEME
TIME_SYSTEM    = UTC
MEAN_ELEMENT_THEORY = SGP/SGP4

EPOCH          = 2026-03-28T20:16:39.496512
MEAN_MOTION    = 14.29299293
ECCENTRICITY   = .00007364
INCLINATION    = 98.7801
RA_OF_ASC_NODE = 46.4588
ARG_OF_PERICENTER = 18.7924
MEAN_ANOMALY   = 341.3285

EPHEMERIS_TYPE = 0
CLASSIFICATION_TYPE = U
NORAD_CAT_ID   = 27597
ELEMENT_SET_NO = 999
REV_AT_EPOCH   = 21303
BSTAR          = .15145557E-3
MEAN_MOTION_DOT = .34E-5
MEAN_MOTION_DDOT = 0

CCSDS_OMM_VERS = 2.0
CREATION_DATE  = 
ORIGINATOR     = 

OBJECT_NAME    = H-2A R/B
OBJECT_ID      = 2002-056E
CENTER_NAME    = EARTH
REF_FRAME      = TEME
TIME_SYSTEM    = UTC
MEAN_ELEMENT_THEORY = SGP/SGP4

EPOCH          = 2026-03-28T21:20:17.336256
MEAN_MOTION    = 14.33773303
ECCENTRICITY   = .00713648
INCLINATION    = 98.3234
RA_OF_ASC_NODE = 47.5275
ARG_OF_PERICENTER = 104.1133
MEAN_ANOMALY   = 267.6834

EPHEMERIS_TYPE = 0
CLASSIFICATION_TYPE = U
NORAD_CAT_ID   = 27601
ELEMENT_SET_NO = 999
REV_AT_EPOCH   = 21686
BSTAR          = .12554463E-3
MEAN_MOTION_DOT = .318E-5
MEAN_MOTION_DDOT = 0

CCSDS_OMM_VERS = 2.0
CREATION_DATE  = 
ORIGINATOR     = 

OBJECT_NAME    = CZ-4B R/B
OBJECT_ID      = 2003-049C
CENTER_NAME    = EARTH
REF_FRAME      = TEME
TIME_SYSTEM    = UTC
MEAN_ELEMENT_THEORY = SGP/SGP4

EPOCH          = 2026-03-28T20:16:25.441824
MEAN_MOTION    = 14.55037075
ECCENTRICITY   = .004828
INCLINATION    = 98.6892
RA_OF_ASC_NODE = 83.5036
ARG_OF_PERICENTER = 171.9008
MEAN_ANOMALY   = 188.2978

EPHEMERIS_TYPE = 0
CLASSIFICATION_TYPE = U
NORAD_CAT_ID   = 28059
ELEMENT_SET_NO = 999
REV_AT_EPOCH   = 18938
BSTAR          = .10100578E-3
MEAN_MOTION_DOT = .39E-5
MEAN_MOTION_DDOT = 0

CCSDS_OMM_VERS = 2.0
CREATION_DATE  = 
ORIGINATOR     = 

OBJECT_NAME    = CZ-2C R/B
OBJECT_ID      = 2004-012C
CENTER_NAME    = EARTH
REF_FRAME      = TEME
TIME_SYSTEM    = UTC
MEAN_ELEMENT_THEORY = SGP/SGP4

EPOCH          = 2026-03-28T21:51:35.976384
MEAN_MOTION    = 15.66854474
ECCENTRICITY   = .00133304
INCLINATION    = 97.7188
RA_OF_ASC_NODE = 155.0541
ARG_OF_PERICENTER = 232.8801
MEAN_ANOMALY   = 127.1241

EPHEMERIS_TYPE = 0
CLASSIFICATION_TYPE = U
NORAD_CAT_ID   = 28222
ELEMENT_SET_NO = 999
REV_AT_EPOCH   = 20728
BSTAR          = .67114861E-3
MEAN_MOTION_DOT = .71543E-3
MEAN_MOTION_DDOT = 0

CCSDS_OMM_VERS = 2.0
CREATION_DATE  = 
ORIGINATOR     = 

OBJECT_NAME    = SL-16 R/B
OBJECT_ID      = 2004-021B
CENTER_NAME    = EARTH
REF_FRAME      = TEME
TIME_SYSTEM    = UTC
MEAN_ELEMENT_THEORY = SGP/SGP4

EPOCH          = 2026-03-28T16:34:50.716128
MEAN_MOTION    = 14.14594827
ECCENTRICITY   = .00049652
INCLINATION    = 71.0008
RA_OF_ASC_NODE = 192.6176
ARG_OF_PERICENTER = 346.5559
MEAN_ANOMALY   = 13.5430

EPHEMERIS_TYPE = 0
CLASSIFICATION_TYPE = U
NORAD_CAT_ID   = 28353
ELEMENT_SET_NO = 999
REV_AT_EPOCH   = 12552
BSTAR          = .1225435E-3
MEAN_MOTION_DOT = .188E-5
MEAN_MOTION_DDOT = 0

CCSDS_OMM_VERS = 2.0
CREATION_DATE  = 
ORIGINATOR     = 

OBJECT_NAME    = CZ-4B R/B
OBJECT_ID      = 2004-035C
CENTER_NAME    = EARTH
REF_FRAME      = TEME
TIME_SYSTEM    = UTC
MEAN_ELEMENT_THEORY = SGP/SGP4

EPOCH          = 2026-03-28T19:40:29.665920
MEAN_MOTION    = 15.29390298
ECCENTRICITY   = .00300168
INCLINATION    = 97.3471
RA_OF_ASC_NODE = 121.8343
ARG_OF_PERICENTER = 259.9327
MEAN_ANOMALY   = 99.8526

EPHEMERIS_TYPE = 0
CLASSIFICATION_TYPE = U
NORAD_CAT_ID   = 28415
ELEMENT_SET_NO = 999
REV_AT_EPOCH   = 18283
BSTAR          = .32287856E-3
MEAN_MOTION_DOT = .9252E-4
MEAN_MOTION_DDOT = 0

CCSDS_OMM_VERS = 2.0
CREATION_DATE  = 
ORIGINATOR     = 

OBJECT_NAME    = CZ-2C R/B
OBJECT_ID      = 2004-046B
CENTER_NAME    = EARTH
REF_FRAME      = TEME
TIME_SYSTEM    = UTC
MEAN_ELEMENT_THEORY = SGP/SGP4

EPOCH          = 2026-03-28T18:26:04.909632
MEAN_MOTION    = 14.26998763
ECCENTRICITY   = .01405881
INCLINATION    = 98.1977
RA_OF_ASC_NODE = 1.5635
ARG_OF_PERICENTER = 98.3846
MEAN_ANOMALY   = 263.3301

EPHEMERIS_TYPE = 0
CLASSIFICATION_TYPE = U
NORAD_CAT_ID   = 28480
ELEMENT_SET_NO = 999
REV_AT_EPOCH   = 11122
BSTAR          = .66765466E-4
MEAN_MOTION_DOT = .141E-5
MEAN_MOTION_DDOT = 0

CCSDS_OMM_VERS = 2.0
CREATION_DATE  = 
ORIGINATOR     = 

OBJECT_NAME    = ARIANE 5 R/B
OBJECT_ID      = 2004-049H
CENTER_NAME    = EARTH
REF_FRAME      = TEME
TIME_SYSTEM    = UTC
MEAN_ELEMENT_THEORY = SGP/SGP4

EPOCH          = 2026-03-28T21:35:41.567424
MEAN_MOTION    = 14.85300022
ECCENTRICITY   = .00829247
INCLINATION    = 98.2656
RA_OF_ASC_NODE = 257.0799
ARG_OF_PERICENTER = 289.1011
MEAN_ANOMALY   = 70.1237

EPHEMERIS_TYPE = 0
CLASSIFICATION_TYPE = U
NORAD_CAT_ID   = 28499
ELEMENT_SET_NO = 999
REV_AT_EPOCH   = 14864
BSTAR          = .10764788E-3
MEAN_MOTION_DOT = .917E-5
MEAN_MOTION_DDOT = 0

CCSDS_OMM_VERS = 2.0
CREATION_DATE  = 
ORIGINATOR     = 

OBJECT_NAME    = CZ-2D R/B
OBJECT_ID      = 2005-024B
CENTER_NAME    = EARTH
REF_FRAME      = TEME
TIME_SYSTEM    = UTC
MEAN_ELEMENT_THEORY = SGP/SGP4

EPOCH          = 2026-03-28T22:34:06.752352
MEAN_MOTION    = 15.61894173
ECCENTRICITY   = .00023568
INCLINATION    = 97.3578
RA_OF_ASC_NODE = 103.8167
ARG_OF_PERICENTER = 338.1507
MEAN_ANOMALY   = 21.9650

EPHEMERIS_TYPE = 0
CLASSIFICATION_TYPE = U
NORAD_CAT_ID   = 28738
ELEMENT_SET_NO = 999
REV_AT_EPOCH   = 14278
BSTAR          = .58541829E-3
MEAN_MOTION_DOT = .50963E-3
MEAN_MOTION_DDOT = 0

CCSDS_OMM_VERS = 2.0
CREATION_DATE  = 
ORIGINATOR     = 

OBJECT_NAME    = ALOS (DAICHI)
OBJECT_ID      = 2006-002A
CENTER_NAME    = EARTH
REF_FRAME      = TEME
TIME_SYSTEM    = UTC
MEAN_ELEMENT_THEORY = SGP/SGP4

EPOCH          = 2026-03-28T20:04:22.387872
MEAN_MOTION    = 14.69867137
ECCENTRICITY   = .00008672
INCLINATION    = 98.1247
RA_OF_ASC_NODE = 43.7003
ARG_OF_PERICENTER = 107.0313
MEAN_ANOMALY   = 253.0988

EPHEMERIS_TYPE = 0
CLASSIFICATION_TYPE = U
NORAD_CAT_ID   = 28931
ELEMENT_SET_NO = 999
REV_AT_EPOCH   = 7629
BSTAR          = .24513552E-3
MEAN_MOTION_DOT = .1416E-4
MEAN_MOTION_DDOT = 0

